OBJECT_NAME,OBJECT_ID,EPOCH,MEAN_MOTION,ECCENTRICITY,INCLINATION,RA_OF_ASC_NODE,ARG_OF_PERICENTER,MEAN_ANOMALY,EPHEMERIS_TYPE,CLASSIFICATION_TYPE,NORAD_CAT_ID,ELEMENT_SET_NO,REV_AT_EPOCH,BSTAR,MEAN_MOTION_DOT,MEAN_MOTION_DDOT
ONEWEB-0015,2024-188A,2026-06-12T21:13:18.742944,13.11420248,.0002273,87.8891,21.9499,75.4282,284.7098,0,U,61594,999,8389,.29259E-3,.116E-5,0
ONEWEB-0687,2024-188B,2026-06-12T19:50:07.996416,13.17647879,.0002361,87.9129,6.7445,88.7589,271.3813,0,U,61595,999,8532,-.42706E-4,-.4E-7,0
ONEWEB-0688,2024-188C,2026-06-12T20:31:26.770080,13.17648164,.0002823,87.9130,6.7385,68.4824,291.6608,0,U,61596,999,8532,.96945E-4,.51E-6,0
ONEWEB-0689,2024-188D,2026-06-12T20:12:16.621056,13.11416188,.0002014,87.8902,21.9155,92.1500,267.9859,0,U,61597,999,8388,.42028E-3,.162E-5,0
ONEWEB-0690,2024-188E,2026-06-12T20:26:55.292640,13.11414839,.0001342,87.8896,21.9253,68.6101,291.5170,0,U,61598,999,8406,-.6604E-3,-.221E-5,0
ONEWEB-0691,2024-188F,2026-06-12T20:19:36.803136,13.11415292,.0002172,87.8906,21.8348,80.2680,279.8693,0,U,61599,999,8391,-.20829E-3,-.61E-6,0
ONEWEB-0692,2024-188G,2026-06-12T02:30:12.883392,13.11417768,.00016893,87.8890,22.0966,110.9507,249.1802,0,U,61600,999,8380,-.17187191E-2,-.596E-5,0
ONEWEB-0693,2024-188H,2026-06-12T06:13:39.790848,13.17648022,.00014665,87.9128,6.8770,62.6101,297.5180,0,U,61601,999,8523,.10286063E-3,.53E-6,0
ONEWEB-0695,2024-188J,2026-06-12T20:14:43.653120,13.11413787,.0001966,87.8887,21.9414,100.9606,259.1743,0,U,61602,999,8389,.17622E-3,.75E-6,0
ONEWEB-0697,2024-188K,2026-06-12T21:01:05.962080,13.11419436,.0001597,87.8891,21.9254,109.9140,250.2160,0,U,61603,999,8388,-.92498E-3,-.315E-5,0
ONEWEB-0698,2024-188L,2026-06-12T20:29:21.573024,13.11413939,.0000742,87.8886,21.9437,109.8385,250.2823,0,U,61604,999,8390,-.10558E-2,-.361E-5,0
ONEWEB-0699,2024-188M,2026-06-12T04:13:20.271648,13.10373803,.00014679,87.8834,37.2642,102.3516,257.7776,0,U,61605,999,8265,.18771264E-2,.668E-5,0
ONEWEB-0700,2024-188N,2026-06-12T04:15:43.595424,13.10373266,.00018415,87.8856,37.1720,104.1370,255.9963,0,U,61606,999,8264,.19600385E-2,.697E-5,0
ONEWEB-0701,2024-188P,2026-06-12T21:09:12.780288,13.10369785,.000146,87.8837,37.1229,110.0111,250.1173,0,U,61607,999,8274,.81338E-3,.297E-5,0
ONEWEB-0702,2024-188Q,2026-06-12T03:16:38.082432,13.11418240,.00018289,87.8907,21.9915,116.9431,243.1884,0,U,61608,999,8382,.16402077E-2,.594E-5,0
ONEWEB-0704,2024-188R,2026-06-12T04:22:53.959872,13.10372238,.00020424,87.8849,37.2511,114.6408,245.4932,0,U,61609,999,8263,.17966998E-2,.64E-5,0
ONEWEB-0705,2024-188S,2026-06-12T20:59:39.947424,13.10369438,.0002593,87.8846,37.1189,101.3346,258.8073,0,U,61610,999,7489,-.77978E-3,-.26E-5,0
ONEWEB-0706,2024-188T,2026-06-12T04:08:33.321696,13.10374818,.00019599,87.8841,37.2643,100.3013,259.8336,0,U,61611,999,8272,.17135888E-2,.611E-5,0
ONEWEB-0707,2024-188U,2026-06-12T04:18:07.045344,13.10372859,.00018859,87.8846,37.2563,101.3060,258.8280,0,U,61612,999,8266,.19385399E-2,.689E-5,0
ONEWEB-0708,2024-188V,2026-06-12T21:13:59.484000,13.10369127,.000234,87.8832,37.1348,85.4741,274.6653,0,U,61613,999,8273,.30114E-3,.118E-5,0
