ONEWEB-0015             
1 61594U 24188A   26163.88424471  .00000116  00000+0  29259-3 0  9991
2 61594  87.8891  21.9499 0002273  75.4282 284.7098 13.11420248 83896
ONEWEB-0687             
1 61595U 24188B   26163.82648144 -.00000004  00000+0 -42706-4 0  9992
2 61595  87.9129   6.7445 0002361  88.7589 271.3813 13.17647879 85323
ONEWEB-0688             
1 61596U 24188C   26163.85517095  .00000051  00000+0  96945-4 0  9990
2 61596  87.9130   6.7385 0002823  68.4824 291.6608 13.17648164 85324
ONEWEB-0689             
1 61597U 24188D   26163.84185904  .00000162  00000+0  42028-3 0  9995
2 61597  87.8902  21.9155 0002014  92.1500 267.9859 13.11416188 83888
ONEWEB-0690             
1 61598U 24188E   26163.85202885 -.00000221  00000+0 -66040-3 0  9993
2 61598  87.8896  21.9253 0001342  68.6101 291.5170 13.11414839 84069
ONEWEB-0691             
1 61599U 24188F   26163.84695374 -.00000061  00000+0 -20829-3 0  9999
2 61599  87.8906  21.8348 0002172  80.2680 279.8693 13.11415292 83916
ONEWEB-0692             
1 61600U 24188G   26163.10431578 -.00000596  00000+0 -17187-2 0  9990
2 61600  87.8890  22.0966 0001689 110.9507 249.1802 13.11417768 83801
ONEWEB-0693             
1 61601U 24188H   26163.25948832  .00000053  00000+0  10286-3 0  9993
2 61601  87.9128   6.8770 0001466  62.6101 297.5180 13.17648022 85236
ONEWEB-0695             
1 61602U 24188J   26163.84356080  .00000075  00000+0  17622-3 0  9992
2 61602  87.8887  21.9414 0001966 100.9606 259.1743 13.11413787 83893
ONEWEB-0697             
1 61603U 24188K   26163.87576345 -.00000315  00000+0 -92498-3 0  9997
2 61603  87.8891  21.9254 0001597 109.9140 250.2160 13.11419436 83884
ONEWEB-0698             
1 61604U 24188L   26163.85372191 -.00000361  00000+0 -10558-2 0  9996
2 61604  87.8886  21.9437 0000742 109.8385 250.2823 13.11413939 83904
ONEWEB-0699             
1 61605U 24188M   26163.17592907  .00000668  00000+0  18771-2 0  9994
2 61605  87.8834  37.2642 0001467 102.3516 257.7776 13.10373803 82659
ONEWEB-0700             
1 61606U 24188N   26163.17758791  .00000697  00000+0  19600-2 0  9994
2 61606  87.8856  37.1720 0001841 104.1370 255.9963 13.10373266 82644
ONEWEB-0701             
1 61607U 24188P   26163.88139792  .00000297  00000+0  81338-3 0  9991
2 61607  87.8837  37.1229 0001460 110.0111 250.1173 13.10369785 82746
ONEWEB-0702             
1 61608U 24188Q   26163.13655188  .00000594  00000+0  16402-2 0  9991
2 61608  87.8907  21.9915 0001828 116.9431 243.1884 13.11418240 83829
ONEWEB-0704             
1 61609U 24188R   26163.18256898  .00000640  00000+0  17967-2 0  9991
2 61609  87.8849  37.2511 0002042 114.6408 245.4932 13.10372238 82637
ONEWEB-0705             
1 61610U 24188S   26163.87476791 -.00000260  00000+0 -77978-3 0  9994
2 61610  87.8846  37.1189 0002593 101.3346 258.8073 13.10369438 74892
ONEWEB-0706             
1 61611U 24188T   26163.17260789  .00000611  00000+0  17136-2 0  9993
2 61611  87.8841  37.2643 0001959 100.3013 259.8336 13.10374818 82721
ONEWEB-0707             
1 61612U 24188U   26163.17924821  .00000689  00000+0  19385-2 0  9991
2 61612  87.8846  37.2563 0001885 101.3060 258.8280 13.10372859 82662
ONEWEB-0708             
1 61613U 24188V   26163.88471625  .00000118  00000+0  30114-3 0  9990
2 61613  87.8832  37.1348 0002340  85.4741 274.6653 13.10369127 82735
